STARLINK-35328          
1 65652U 25211A   25292.00003472 -.02314429  00000+0 -61828-1 0  9993
2 65652  97.6035 334.1408 0001704  79.3483 322.8829 15.41517546  5687
STARLINK-34210          
1 65653U 25211B   25292.00003472 -.02323258  00000+0 -58106-1 0  9999
2 65653  97.6043 334.1466 0001655  69.6817 345.4048 15.43488497  5788
STARLINK-35227          
1 65654U 25211C   25291.72945398 -.00857944  00000+0 -18646-1 0  9997
2 65654  97.6047 333.8623 0002494  40.7535 319.3901 15.47015700  5665
STARLINK-35240          
1 65655U 25211D   25292.00003472 -.02303538  00000+0 -60534-1 0  9998
2 65655  97.6038 334.1429 0001643  76.2847 330.3091 15.41992065  5732
STARLINK-35344          
1 65656U 25211E   25292.00003472 -.02300862  00000+0 -56825-1 0  9994
2 65656  97.6039 334.1481 0001887  58.1877   0.1096 15.43824582  5685
STARLINK-34540          
1 65657U 25211F   25291.92292802 -.00639022  00000+0 -13978-1 0  9995
2 65657  97.6033 334.0674 0001055  60.5667 299.5687 15.46506178  5696
STARLINK-35282          
1 65658U 25211G   25291.85776803 -.00295150  00000+0 -60373-2 0  9998
2 65658  97.6054 334.0005 0004112  46.8314 313.3278 15.47167763  5685
STARLINK-35120          
1 65659U 25211H   25291.08252628  .00125046  00000+0  22633-2 0  9999
2 65659  97.6021 333.1806 0001867  99.6825 260.4636 15.49202847  5568
STARLINK-35246          
1 65660U 25211J   25291.85735490 -.00283435  00000+0 -57410-2 0  9999
2 65660  97.6039 334.0007 0004194  56.7453 303.4197 15.47408215  5687
STARLINK-35220          
1 65661U 25211K   25291.92154491 -.00517490  00000+0 -10803-1 0  9999
2 65661  97.6045 334.0690 0000776 129.7093 230.4225 15.47410252  5692
STARLINK-35176          
1 65662U 25211L   25291.92104826 -.00484133  00000+0 -98576-2 0  9998
2 65662  97.6026 334.0704 0001155 137.1535 222.9805 15.48004831  5697
STARLINK-35190          
1 65663U 25211M   25291.85603054 -.00142417  00000+0 -27116-2 0  9996
2 65663  97.6051 334.0026 0004202  51.5537 308.6089 15.48669602  5688
STARLINK-35201          
1 65664U 25211N   25291.92021772 -.00294648  00000+0 -57104-2 0  9990
2 65664  97.6037 334.0709 0000905 147.6774 212.4532 15.48735211  5693
STARLINK-35115          
1 65665U 25211P   25291.85522547  .00085078  00000+0  15471-2 0  9993
2 65665  97.6066 334.0032 0001818  79.1109 281.0346 15.49225801  5684
STARLINK-35181          
1 65666U 25211Q   25291.66110391  .00102949  00000+0  18690-2 0  9996
2 65666  97.6052 333.7982 0001628  90.7560 269.3877 15.49202082  5650
STARLINK-35361          
1 65667U 25211R   25291.85453223  .00122347  00000+0  22125-2 0  9994
2 65667  97.6056 334.0052 0001248  82.6013 277.5379 15.49239401  5684
STARLINK-35351          
1 65668U 25211S   25291.85418910  .00103320  00000+0  18736-2 0  9992
2 65668  97.6061 334.0062 0001549  93.6580 266.4847 15.49232884  5682
STARLINK-35353          
1 65669U 25211T   25291.85384432  .00100974  00000+0  18315-2 0  9999
2 65669  97.6070 334.0062 0001452  92.9355 267.2062 15.49236000  5680
STARLINK-35359          
1 65670U 25211U   25291.65973120  .00162434  00000+0  29241-2 0  9996
2 65670  97.6028 333.8015 0002275  83.1267 277.0242 15.49215639  5659
STARLINK-35194          
1 65671U 25211V   25291.07736902  .00210476  00000+0  36746-2 0  9996
2 65671  97.6033 333.1910 0001849 192.8688 167.2516 15.49912427  5567
STARLINK-35198          
1 65672U 25211W   25292.00003472 -.00401381  00000+0 -77214-2 0  9994
2 65672  97.6044 334.1614 0001807  78.5531  20.1964 15.49327046  5733
STARLINK-35177          
1 65673U 25211X   25291.85212603  .00107240  00000+0  19437-2 0  9993
2 65673  97.6067 334.0093 0001716  98.5345 261.6099 15.49231875  5682
STARLINK-35254          
1 65674U 25211Y   25291.85179816  .00114057  00000+0  20686-2 0  9994
2 65674  97.6052 334.0102 0001368  98.5813 261.5592 15.49186865  5686
STARLINK-34749          
1 65675U 25211Z   25291.85247241  .00185302  00000+0  33228-2 0  9990
2 65675  97.6037 334.0077 0002080  89.7483 270.4006 15.49242176  5685
STARLINK-35189          
1 65676U 25212A   25291.91292019  .00085253  00000+0  15201-2 0  9997
2 65676  53.1583 284.4432 0001298  92.0661 268.0497 15.49385923  5480
STARLINK-35222          
1 65677U 25212B   25291.91258197  .00171630  00000+0  30237-2 0  9998
2 65677  53.1584 284.4415 0001198  98.2445 261.8700 15.49337003  5541
STARLINK-35233          
1 65678U 25212C   25292.00003472 -.02010172  00000+0 -61736-1 0  9998
2 65678  53.1599 284.1413 0000989  99.0481 329.7622 15.36910805  5639
STARLINK-35205          
1 65679U 25212D   25291.91892105 -.00344967  00000+0 -89824-2 0  9996
2 65679  53.1595 284.4817 0000372  75.5259 284.5787 15.39716152  5480
STARLINK-35070          
1 65680U 25212E   25291.78184957  .00116366  00000+0  20663-2 0  9996
2 65680  53.1585 285.0479 0002020  92.0297 268.0943 15.49349668  5510
STARLINK-35230          
1 65681U 25212F   25291.78198133 -.00258685  00000+0 -51283-2 0  9993
2 65681  53.1583 285.0472 0001730 139.4742 220.6396 15.47411766  5524
STARLINK-35235          
1 65682U 25212G   25291.97434126  .00182854  00000+0  32128-2 0  9999
2 65682  53.1581 284.1156 0001539  75.7282 284.3898 15.49367432  5492
STARLINK-34886          
1 65683U 25212H   25291.91189425  .00210007  00000+0  36724-2 0  9991
2 65683  53.1584 284.4378 0001092  96.4249 263.6884 15.49393950  5480
STARLINK-34795          
1 65684U 25212J   25292.00003472 -.02040765  00000+0 -48617-1 0  9999
2 65684  53.1597 284.0243 0001294  82.7830  44.0088 15.44554049  5525
STARLINK-35145          
1 65685U 25212K   25291.91983502 -.00256874  00000+0 -70765-2 0  9998
2 65685  53.1597 284.4862 0003693 355.3343   4.7626 15.37621412  5487
STARLINK-35137          
1 65686U 25212L   25292.00003472  .00071909  00000+0  17942-2 0  9999
2 65686  53.1584 282.9904 0001623  84.8411 181.1682 15.39562018  5520
STARLINK-34856          
1 65687U 25212M   25291.97399691  .00119280  00000+0  21160-2 0  9998
2 65687  53.1582 284.1121 0001262  94.7884 265.3269 15.49363969  5494
STARLINK-34930          
1 65688U 25212N   25291.97203548 -.00308505  00000+0 -58831-2 0  9991
2 65688  53.1581 284.0978 0001011  71.0986 289.0132 15.48711796  5548
STARLINK-34875          
1 65689U 25212P   25292.00003472 -.02036902  00000+0 -58323-1 0  9997
2 65689  53.1599 284.0621 0001290  83.2969  24.3105 15.39091729  5624
STARLINK-34790          
1 65690U 25212Q   25292.00003472 -.02042610  00000+0 -56933-1 0  9997
2 65690  53.1602 284.0406 0001398  81.7253  36.1075 15.39912452  5475
STARLINK-34691          
1 65691U 25212R   25291.93551961  .00163205  00000+0  28749-2 0  9995
2 65691  53.1581 283.1116 0000861  49.9404 310.1680 15.49374972  5554
STARLINK-34825          
1 65692U 25212S   25291.97305154 -.00424749  00000+0 -88463-2 0  9995
2 65692  53.1583 284.1049 0000913  82.7730 277.3381 15.46621602  5530
STARLINK-35060          
1 65693U 25212T   25292.00003472 -.02569272  00000+0 -66426-1 0  9996
2 65693  53.1596 282.8402 0000945  71.2328 269.5804 15.42417187  5624
STARLINK-35204          
1 65694U 25212U   25291.91051968 -.00350392  00000+0 -82873-2 0  9993
2 65694  53.1589 284.4256 0000700 104.4605 255.6479 15.42617943  5545
STARLINK-35221          
1 65695U 25212V   25291.97091908  .00058184  00000+0  10479-2 0  9993
2 65695  53.1581 284.0904 0001332  91.0533 269.0629 15.49269821  5559
STARLINK-34734          
1 65696U 25212W   25291.97056128  .00125161  00000+0  22193-2 0  9995
2 65696  53.1582 284.0885 0001262  92.8813 267.2341 15.49350425  5542
STARLINK-35113          
1 65697U 25212X   25291.97021839  .00176728  00000+0  31086-2 0  9993
2 65697  53.1581 284.0864 0001252  85.4433 274.6719 15.49361189  5544
STARLINK-35090          
1 65698U 25212Y   25291.97258649 -.00429472  00000+0 -98887-2 0  9996
2 65698  53.1586 284.1002 0001314  81.9147 278.2009 15.43714686  5547
STARLINK-35086          
1 65699U 25212Z   25292.00003472 -.01770416  00000+0 -60211-1 0  9991
2 65699  53.1601 284.1320 0000847 116.0778 315.0578 15.33287949  5524
STARLINK-35101          
1 65700U 25212AA  25291.96953603  .00167491  00000+0  29467-2 0  9997
2 65700  53.1581 284.0816 0001427  74.7603 285.3564 15.49392828  5495
STARLINK-35046          
1 65701U 25212AB  25292.00003472 -.02043264  00000+0 -54415-1 0  9999
2 65701  53.1595 283.9773 0001329  86.6259  61.7793 15.41276876  5622
STARLINK-35075          
1 65702U 25212AC  25291.96854436 -.00093939  00000+0 -17151-2 0  9997
2 65702  53.1583 284.0747 0003173 149.5232 210.5962 15.49072180  5545
STARLINK-34839          
1 65703U 25212AD  25291.96815572  .00173501  00000+0  30482-2 0  9990
2 65703  53.1583 284.0715 0001148  98.2279 261.8860 15.49407601  5548
SHIKONGXING 01          
1 65712U 25214A   25284.73474475  .00059666  00000+0  12338-2 0  9997
2 65712  50.2785  19.9438 0189906 282.4465  75.5305 15.28198897  2609
GEESAT-6 01             
1 65713U 25214B   25283.13770470  .00004776  00000+0  55729-3 0  9999
2 65713  50.6954  27.2968 0150037 221.5236 137.4234 14.79039869  2365
GEESAT-6 02             
1 65714U 25214C   25283.26823601  .00001828  00000+0  23223-3 0  9998
2 65714  49.9854  28.0347 0013183 350.9367   9.1333 14.86159418  2386
GEESAT-6 03             
1 65715U 25214D   25286.53911731  .00001023  00000+0  26021-3 0  9990
2 65715  50.0405  13.7072 0247865  68.6999 294.0191 14.41916380  2879
GEESAT-6 04             
1 65716U 25214E   25291.91164552  .00005073  00000+0  59147-3 0  9994
2 65716  49.9873 347.4861 0011251  38.7636 321.4109 14.86568905  3671
GEESAT-6 05             
1 65717U 25214F   25291.86714411  .00004508  00000+0  52813-3 0  9999
2 65717  49.9826 347.9304 0014469  24.5817 335.5809 14.86583537  3665
GEESAT-6 06             
1 65718U 25214G   25291.83284259  .00005460  00000+0  56589-3 0  9991
2 65718  49.9907 347.7322 0012116  23.1165 337.0319 14.91250195  3662
